0 SL-14 R/B
1 15100U 84072B   13282.16526455  .00000049  00000-0  30423-4 0   921
2 15100 082.5285 135.8310 0012492 161.6206 333.5163 13.84379618478520
0 SL-14 R/B
1 15100U 84072B   13283.17802841  .00000055  00000-0  36000-4 0   934
2 15100 082.5283 135.0244 0012560 158.8832 340.7904 13.84379498478669
0 SL-14 R/B
1 15100U 84072B   13285.76198034  .00000053  00000-0  33868-4 0   952
2 15100 082.5278 132.9665 0012689 152.1672 258.0671 13.84379690479024
0 SL-14 R/B
1 15100U 84072B   13287.15318087  .00000049  00000-0  30799-4 0   965
2 15100 082.5276 131.8584 0012752 148.5505 351.1977 13.84379854479212
0 SL-14 R/B
1 15100U 84072B   13288.15906881  .00000037  00000-0  19648-4 0   979
2 15100 082.5274 131.0572 0012796 145.9555 324.0804 13.84380051479357
0 SL-14 R/B
1 15100U 84072B   13289.52199538  .00000017  00000-0  22241-5 0   987
2 15100 082.5273 129.9717 0012861 142.4143 276.3054 13.84380292479545
0 SL-14 R/B
1 15100U 84072B   13290.52790973  .00000020  00000-0  41273-5 0   990
2 15100 082.5273 129.1704 0012912 139.7714 249.3696 13.84380321479683
0 SL-14 R/B
1 15100U 84072B   13291.53881396  .00000023  00000-0  73458-5 0  1008
2 15100 082.5274 128.3651 0012965 137.1353 247.2817 13.84380322479824
0 SL-14 R/B
1 15100U 84072B   13292.55027403  .00000011  00000-0 -36340-5 0  1010
2 15100 082.5274 127.5594 0012996 134.5670 247.8940 13.84380276479964
0 SL-14 R/B
1 15100U 84072B   13293.71170434  .00000025  00000-0  87901-5 0  1026
2 15100 082.5275 126.6342 0013019 131.6676 275.8349 13.84380311480121
0 SL-14 R/B
1 15100U 84072B   13294.72696068  .00000053  00000-0  34380-4 0  1038
2 15100 082.5275 125.8255 0013049 129.0825 295.3746 13.84380311480268
0 SL-14 R/B
1 15100U 84072B   13296.11528752  .00000047  00000-0  28485-4 0  1040
2 15100 082.5275 124.7197 0013079 125.5374 014.1232 13.84380115480454
